DOT-1                   
1 44399U 19038P   22074.82877591  .00005044  00000+0  28018-3 0  9996
2 44399  97.6291  43.1391 0025599 101.0182 259.3931 15.13895845148777
SOKRAT                  
1 44404U 19038U   22074.84635571  .00008301  00000+0  44139-3 0  9996
2 44404  97.6249  43.7477 0022842  97.7776 262.6050 15.15306804148836
LUCKY-7                 
1 44406U 19038W   22074.86065375  .00006199  00000+0  34001-3 0  9999
2 44406  97.6279  43.4854 0025311  93.7722 266.6404 15.14261492148792
D-STAR ONE (EXOCONNECT) 
1 44410U 19038AA  22073.88785847  .00013783  00000+0  69712-3 0  9992
2 44410  97.6200  43.3957 0022289  97.2022 263.1746 15.16936221148744
NARSSCUBE-2             
1 44415U 19022E   22074.63465130  .00007989  00000+0  25781-3 0  9993
2 44415  51.6408 211.2989 0010997  77.7308 282.4904 15.33002289145714
DUCHIFAT-3              
1 44854U 19089C   22074.77443344  .00004521  00000+0  35975-3 0  9996
2 44854  36.9654 295.3870 0007348 190.7344 256.9774 15.00306567123856
OPS-SAT                 
1 44878U 19092F   22074.46616663  .00007599  00000+0  37326-3 0  9998
2 44878  97.4782 259.3444 0012289 311.4490  48.5688 15.18280925123922
FLORIPASAT-1            
1 44885U 19093G   22074.82458263  .00002088  00000+0  26469-3 0  9991
2 44885  97.9007 156.4241 0015898 134.8612 225.3881 14.82730370120975
HUSKYSAT-1 (HO-107)     
1 45119U 19071J   22074.48579624  .00015351  00000+0  38553-3 0  9999
2 45119  51.6403 159.5881 0008751 191.6221 168.4563 15.40144985118869
G-SAT                   
1 45597U 98067RK  22074.59953518  .00207424  00000+0  88974-3 0  9997
2 45597  51.6336  34.0019 0003318 126.4130 233.7179 15.83950929107084
BY70-2                  
1 45857U 20042B   22074.79906852  .00007983  00000+0  11006-2 0  9994
2 45857  97.9597 152.6233 0011457  67.6132 292.6230 14.78418189 91614
SALSAT                  
1 46495U 20068K   22073.83835899  .00002951  00000+0  21763-3 0  9999
2 46495  97.7221  15.1985 0015385 234.7113 125.2674 15.03999845 79961
NETSAT-4                
1 46504U 20068U   22074.57850856  .00004451  00000+0  33686-3 0  9996
2 46504  97.7129  14.6438 0011609 286.2052  73.7905 15.02779228 79947
NETSAT-3                
1 46505U 20068V   22074.59137996  .00003290  00000+0  25059-3 0  9997
2 46505  97.7144  14.5961 0010685 301.1383  58.8957 15.02729805 79950
NETSAT-1                
1 46506U 20068W   22074.53812990  .00002918  00000+0  22310-3 0  9999
2 46506  97.7153  14.4862 0008309 316.9791  43.0784 15.02699581 79947
NETSAT-2                
1 46507U 20068X   22074.61240628  .00003348  00000+0  25545-3 0  9993
2 46507  97.7152  14.5538 0007177 325.0463  35.0307 15.02682013 79907
BY70-3                  
1 46839U 20079N   22074.80809334  .00023275  00000+0  62780-3 0  9992
2 46839  97.2088 148.3843 0004985 317.4935 181.8879 15.37784718 75831
SPOC                    
1 46921U 98067RR  22074.65423471  .00075997  00000+0  65599-3 0  9992
2 46921  51.6364  54.0067 0003765  71.2967 288.8438 15.68544654 77164
BOBCAT-1                
1 46922U 98067RS  22073.38617547  .00373946  00000+0  14393-2 0  9991
2 46922  51.6331  48.5156 0005821  91.0263 269.1408 15.85770171 77095
NEUTRON-1               
1 46923U 98067RT  22073.79910490  .00078091  00000+0  68145-3 0  9998
2 46923  51.6373  58.8048 0004018  68.4635 291.6790 15.68265935 77052
DESCENT                 
1 46927U 98067RX  22073.97951853  .00089822  00000+0  76368-3 0  9990
2 46927  51.6364  57.7561 0004473  76.1549 283.9945 15.68840849 77003
UVSQ-SAT                
1 47438U 21006AB  22074.69306578  .00005217  00000+0  28712-3 0  9991
2 47438  97.4503 135.6590 0011105 235.7690 124.2490 15.14421273 63084
SOMP2B                  
1 47445U 21006AJ  22074.74076541  .00004524  00000+0  25110-3 0  9998
2 47445  97.4473 135.4442 0010701 240.0190 119.9980 15.14192278 63082
WARP-01                 
1 47924U 98067SA  22073.98445347  .00153346  00000+0  10545-2 0  9992
2 47924  51.6334  62.9793 0006992  66.1888 293.9843 15.73630748 56989
RSP-01                  
1 47925U 98067SB  22073.96983061  .00089735  00000+0  82464-3 0  9991
2 47925  51.6379  66.6954 0003473  53.1613 306.9701 15.66936734 56919
TAUSAT-1                
1 47926U 98067SC  22073.95633714  .00154928  00000+0  10582-2 0  9996
2 47926  51.6345  62.0649 0004046  56.2352 303.9031 15.73802638 56966
TSURU                   
1 47927U 98067SD  22073.96947132  .00073492  00000+0  73750-3 0  9993
2 47927  51.6371  68.1868 0003086  48.0561 312.0696 15.64822876 56896
STARS-EC                
1 47928U 98067SE  22074.39652435  .00196017  00000+0  11199-2 0  9998
2 47928  51.6338  59.7406 0007646  73.6236 286.5604 15.77724693 57025
MAYA-2                  
1 47929U 98067SF  22073.96611445  .00074207  00000+0  74597-3 0  9995
2 47929  51.6373  68.1634 0002943  47.2687 312.8555 15.64775624 56858
HIROGARI (OPUSAT-II)    
1 47930U 98067SG  22074.38489693  .00226218  00000+0  12049-2 0  9996
2 47930  51.6312  58.1619 0004981  78.5716 281.5844 15.79218462 57064
GUARANISAT-1            
1 47931U 98067SH  22073.95793719  .00075246  00000+0  75276-3 0  9991
2 47931  51.6383  68.1231 0002978  46.7638 313.3605 15.64891785 56896
DIY-1 (ARDUIQUBE)       
1 47963U 21022AH  22074.69494267  .00010878  00000+0  66506-3 0  9997
2 47963  97.5413 337.3291 0020208  94.8885 265.4652 15.10254124 52789
